GLOBALSTAR M067 [+]     
1 32263U 07048A   23349.89486479 -.00000065  00000+0  23998-3 0  9996
2 32263  51.9703 203.1554 0000414 108.6253 356.4440 12.40635769741301
GLOBALSTAR M070 [+]     
1 32264U 07048B   23349.93324220 -.00000106  00000+0 -10380-4 0  9996
2 32264  51.9769   1.7019 0000220  14.0475  61.3388 12.62282626744303
GLOBALSTAR M066 [+]     
1 32265U 07048C   23349.81220691 -.00000063  00000+0  22567-3 0  9991
2 32265  51.9661 224.1083 0001832  85.0910 351.3775 12.62278288746559
GLOBALSTAR M068 [-]     
1 32266U 07048D   23349.85601606 -.00000099  00000+0  28246-4 0  9995
2 32266  51.9856 176.7296 0001611  58.6067  46.7748 12.62774680748158
GLOBALSTAR M079 [+]     
1 37188U 10054A   23349.41245531 -.00000096  00000+0  46125-4 0  9990
2 37188  52.0060  13.3888 0000415 134.6583 332.4313 12.62270501607023
GLOBALSTAR M074 [+]     
1 37189U 10054B   23349.27455615 -.00000094  00000+0  51887-4 0  9990
2 37189  52.0038  13.2158 0000258  94.2028 346.2741 12.62263235607617
GLOBALSTAR M076 [+]     
1 37190U 10054C   23349.93218875 -.00000089  00000+0  84042-4 0  9993
2 37190  52.0052  11.3377 0000441 205.5277 223.2864 12.62264350607411
GLOBALSTAR M077 [+]     
1 37191U 10054D   23349.29414184 -.00000094  00000+0  52208-4 0  9999
2 37191  52.0090 329.9778 0000350  42.6813  64.8922 12.62267291607705
